#dP2023  1 15  0  0  0.00000000      96 __u+U ITR00 EXT  IAC
## 2245      0.00000000   900.00000000 59959 0.0000000000000
+  119   C06C07C08C09C10C11C12C13C14C16C19C20C21C22C23C24C25
+        C26C27C28C29C30C32C33C34C35C36C37C38C39C40C41C42C43
+        C44C45C46E01E02E03E04E05E07E08E09E10E11E12E13E14E15
+        E18E19E21E24E25E26E27E30E31E33E34E36G01G02G03G04G05
+        G06G07G08G09G10G11G12G13G14G15G16G17G18G19G20G21G22
+        G23G24G25G26G27G29G30G31G32J02J03J04R01R02R03R04R05
+        R07R08R09R11R12R13R14R15R16R17R18R19R20R21R22R24R25
++        10  9  9 10  9  9  9  8 14 10 10  9  8  9  8  8  9
++         8  9  7  6  9 10 10  8  8  8  8 10  9  9  9  8  8
++         7  7  9  8  7  7  8  7  8  6  6  6  9  8  7  8  7
++         6  8  7  7  7  7  8  7  8  8  7  8  8  7  7  8  6
++         8  6  8  6  9  8  6  6  7  7  7  7  7  8  8  7  7
++         6  6  7  6  8  8  8  7  6  8  9 12  9  8  7  7  9
++         9  8  9  9  7  9  8  7  7  6  8  8  7  8  7  7  8
%c M  cc GPS ccc cccc cccc cccc cccc ccccc ccccc ccccc ccccc
%c cc cc ccc ccc cccc cccc cccc cccc ccccc ccccc ccccc ccccc
%f  0.0000000  0.000000000  0.00000000000  0.000000000000000
%f  0.0000000  0.000000000  0.00000000000  0.000000000000000
%i    0    0    0    0      0      0      0      0         0
%i    0    0    0    0      0      0      0      0         0
/* IAC                                ULTRA-RAPID PREDICTION
/* S/V CLOCKS ARE ALIGNED TO GNSS TIME                      
/* G:C1WC2W R:C1PC2P E:C1XC5X C:C2IC6I J:C1CC2S             
/* PCV:IGS20_2239 OL/AL:FES2004  NONE     YN ORB:CoN CLK:CoN
*  2023 01 15 22 45  0.00000000
PC06  -3966.561893  38713.027166  16547.632000   -185.515296
PC07  -8241.264298  25991.032437 -32108.026276     10.502949
PC08 -18103.809915  32726.025367  19324.450049    527.676303
PC09    272.572466  41511.346719   9227.187115    277.071773
PC10  -1717.673047  27007.660974 -32001.279791     31.514820
PC11  17236.794491   8043.207995  20484.858322   -175.845688
PC12  13598.164548  23379.916934   6903.901237    399.552591
PC13 -12850.388496  33097.611156  22685.795792    184.213379
PC14  27645.408716   3531.987765   -686.187222    372.384835
PC16  -4990.927635  37737.290053  18635.342212     81.134005
PC19 -25933.093999   3044.424097   9891.019139   -896.919814
PC20 -25681.015295  -8501.204814  -6889.672030    765.698249
PC21   9801.824949  15813.684189  20809.234808   -916.637944
PC22 -11267.179391  13362.346791  21757.852622   -683.816577
PC23  15652.054706 -22935.541924   2831.851188   -871.696548
PC24  14351.268387   8082.837800 -22548.806869   -536.387016
PC25  21273.404293 -12213.631566 -13340.843533     56.094871
PC26    745.455222  20947.452788 -18422.088011    -64.847577
PC27  -8922.124138 -26385.643404   1558.112677     82.126893
PC28   3975.452702 -22025.557538  16674.421348     59.329295
PC29      0.000000      0.000000      0.000000     67.893581
PC30 -17727.681148 -16075.372463 -14338.349781      1.276411
PC32  -9863.516818 -15743.227387 -20809.579109   -649.220561
PC33  25949.965641  -3125.968866  -9758.730640   -880.575271
PC34  17939.857535  15031.778063  15208.170544     84.484451
PC35  -4240.804229  21336.446248 -17509.523566    454.605022
PC36 -21529.235647  11092.723962  13867.246497   -692.204626
PC37   1049.166809 -21663.388146  17580.382548   -846.760293
PC38 -22957.205720  33562.411382  10872.611733     52.195411
PC39  -7440.020392  33948.563535  24042.180994     -1.433152
PC40 -13187.273583  19623.635861 -34931.428974    -12.632268
PC41  11860.643692 -13189.230724 -21491.715588   -498.104753
PC42  25057.591795   9223.077975   8127.576027   -893.647878
PC43  15929.506840  -3314.964335  22667.511664      2.262753
PC44   9732.807392  26114.141893  -1782.232030    178.431185
PC45 -15406.022267  23022.760611  -3246.499143    -48.012461
PC46 -15394.929547  -6306.861817  22390.549318    -26.689266
PE01 -15269.067960 -11011.288475  22835.307274   -595.139860
PE02  15659.491788  10772.296552 -22705.595724     14.927214
PE03  21638.131634  20037.467769   2500.618622   -640.294673
PE04 -24653.555565  -6610.590452  14987.792319    -36.981760
PE05   5808.125259  21994.255259  18940.120868   -104.828057
PE07  13233.963352 -11026.435957 -24069.965247    -15.448216
PE08  24636.443210   6711.273647 -14971.142938    -20.058946
PE09 -13300.831292  10776.674653  24146.843771   -801.375762
PE10 -16072.267658  12155.416174 -21680.608874   -505.344306
PE11 -13175.530222  22163.587727 -14553.855985    475.680435
PE12 -16370.329967   1175.385403 -24630.157771   -385.523775
PE13  13447.196559 -21462.632657  15323.576079    429.904295
PE14   7050.301912 -15159.299217  18629.534001    114.461043
PE15  16259.695780   -798.842944  24732.772220    693.911705
PE18 -17012.561828  11026.636578 -23944.942623   -505.004089
PE19 -20076.275459 -21146.166045  -5068.511798  -3477.886734
PE21   4338.579699 -18302.157821  22853.678685   -506.469503
PE24 -23610.382221  15343.285898  -9092.932150  -1060.047150
PE25  -4665.864148  18347.790631 -22749.606753   -597.257345
PE26   2284.881701 -29269.915202  -3764.081825  -1850.335776
PE27  23036.704190 -15773.195177   9860.519074   -488.592592
PE30  27875.376010  -3346.214173  -9429.669245  -1163.300645
PE31 -27971.138831   3975.060006   8812.291839   -513.416542
PE33  -9449.293569 -20182.202542 -19467.560554   -454.147542
PE34   9584.492892  20021.818595  19579.888787    -25.023970
PE36  -2778.605207  29324.942614   2974.922201   -490.977722
PG01  13487.686015 -18334.307324  13076.092258    223.982592
PG02 -10554.647039  21879.002322 -10364.068813   -627.082562
PG03  21521.932005 -12738.725024  -8900.700289   -371.914938
PG04  11427.743588 -10021.668768 -21779.618263    -47.967891
PG05 -25580.084000   4587.561175  -5943.602803   -112.127589
PG06  -7187.433299 -18706.737547 -17314.153226    559.025058
PG07   5945.986552 -25606.530522    223.906463    258.169580
PG08  19576.253695    563.074112  18064.806943   -103.765030
PG09    262.016591 -18210.252569 -19394.949241   -235.813542
PG10   7311.378932  13295.384028  21993.233878    -20.562711
PG11 -13952.815616  -6067.303513 -21761.466453    -79.640926
PG12 -22976.640718  10786.141293  -7914.101970   -328.541629
PG13 -20242.613744  -9322.736446  14416.026305    459.988605
PG14  -4157.020696 -14880.373232  21609.883267    -48.606236
PG15 -19563.765952   2053.473696  17519.270619      4.942740
PG16  25436.309314    870.124604  -8688.345346   -523.731521
PG17 -10589.192846 -21970.026061  10839.743355    693.591118
PG18  -4580.148258  25923.502484   2892.368890   -100.570325
PG19 -17764.483288 -19935.293265   -713.441521    264.610170
PG20 -20893.009050  -2595.798678 -16033.513134    456.830215
PG21  15327.047558  -9808.976993  19656.290458    153.465882
PG22  19183.947407  18183.484561  -2984.208961    406.680288
PG23  -5609.843122  16340.508747  20132.812674      2.595001
PG24 -14236.016097  14993.854359  16087.609910    -31.574667
PG25 -15174.780992  15891.558913 -15021.688493    411.623596
PG26  18048.766019   7609.700017 -18192.761897    240.347997
PG27  22042.002557  11138.377294  10080.138794    126.154659
PG29  -4003.880261  16231.575605 -20662.976900   -580.607774
PG30  -2746.554958 -23766.224613  11346.057607   -533.162866
PG31   8964.884175  17026.301956 -18272.670747   -206.426982
PG32  14381.237969  21007.487305   8087.231865   -365.204600
PJ02 -36115.620907  18266.125291  -7258.016123     -0.584134
PJ03 -19075.368238  28928.017739 -19288.492018     -0.065111
PJ04 -27256.408511  28731.534582  20779.531492    118.925679
PR01  -4265.587693 -12334.620387 -21917.133618     21.325611
PR02 -20502.912365 -11853.636839  -9341.752080    -23.302106
PR03 -23814.440941  -4103.593725   8113.233662     70.923481
PR04 -13820.142164   5414.952128  20766.914735    172.437804
PR05   3647.174240  12200.976816  22117.189453    106.257866
PR07  23685.687559   3787.859855  -8718.678211     48.099199
PR08  13740.872633  -5606.908459 -20699.555446    -69.027286
PR09   9098.105072   6962.855753 -22774.082228     98.774316
PR11  18846.199379 -17178.075979    332.372728      5.996464
PR12   6956.304048 -17302.362530  17433.571660     24.359230
PR13  -7507.853542  -8090.477650  22975.140575    -30.987953
PR14 -19241.573544   7393.298562  15038.887056     24.241509
PR15 -18650.010896  17342.488380  -1417.189021     91.715682
PR16  -7196.952503  17397.788997 -17221.713663     10.016593
PR17 -11074.958433  -2701.759271 -22808.696964    596.124327
PR18  -6336.026278  14821.979570 -19767.851354     61.984204
PR19    236.538408  24301.870044  -7741.985866   -218.344008
PR20   8760.820018  20367.135717  12667.686973    -85.918565
PR21  10752.583449    876.923121  23118.626982   -365.725318
PR22   6945.533835 -15287.364330  19226.420462     66.777516
PR24  -9803.600098 -19593.514927 -13050.832493    139.907310
PR25  11265.907251   3522.683768  22619.605280     51.721855
EOF
